[
    {
        "OBJECT_NAME": "STARLINK-4319",
        "OBJECT_ID": "2022-077AT",
        "EPOCH": "2023-11-14T18:24:14.277024",
        "MEAN_MOTION": 15.01256768,
        "ECCENTRICITY": 0.0002752,
        "INCLINATION": 97.6541,
        "RA_OF_ASC_NODE": 137.6921,
        "ARG_OF_PERICENTER": 87.0178,
        "MEAN_ANOMALY": 273.1361,
        "EPHEMERIS_TYPE": 0,
        "CLASSIFICATION_TYPE": "U",
        "NORAD_CAT_ID": 53084,
        "ELEMENT_SET_NO": 999,
        "REV_AT_EPOCH": 7400,
        "BSTAR": -5.1975e-6,
        "MEAN_MOTION_DOT": -1.26e-6,
        "MEAN_MOTION_DDOT": 0
    },
    {
        "OBJECT_NAME": "STARLINK-4324",
        "OBJECT_ID": "2022-077AU",
        "EPOCH": "2023-11-14T18:16:35.261472",
        "MEAN_MOTION": 15.01258929,
        "ECCENTRICITY": 0.0001744,
        "INCLINATION": 97.6549,
        "RA_OF_ASC_NODE": 137.6864,
        "ARG_OF_PERICENTER": 88.5169,
        "MEAN_ANOMALY": 271.6255,
        "EPHEMERIS_TYPE": 0,
        "CLASSIFICATION_TYPE": "U",
        "NORAD_CAT_ID": 53085,
        "ELEMENT_SET_NO": 999,
        "REV_AT_EPOCH": 7400,
        "BSTAR": -4.5914e-5,
        "MEAN_MOTION_DOT": -6.49e-6,
        "MEAN_MOTION_DDOT": 0
    },
    {
        "OBJECT_NAME": "STARLINK-4318",
        "OBJECT_ID": "2022-077AV",
        "EPOCH": "2023-11-14T18:21:34.087104",
        "MEAN_MOTION": 15.01261692,
        "ECCENTRICITY": 0.0002425,
        "INCLINATION": 97.6539,
        "RA_OF_ASC_NODE": 137.6885,
        "ARG_OF_PERICENTER": 61.4051,
        "MEAN_ANOMALY": 298.7417,
        "EPHEMERIS_TYPE": 0,
        "CLASSIFICATION_TYPE": "U",
        "NORAD_CAT_ID": 53086,
        "ELEMENT_SET_NO": 999,
        "REV_AT_EPOCH": 7400,
        "BSTAR": 2.605e-5,
        "MEAN_MOTION_DOT": 2.76e-6,
        "MEAN_MOTION_DDOT": 0
    },
    {
        "OBJECT_NAME": "STARLINK-4329",
        "OBJECT_ID": "2022-077AW",
        "EPOCH": "2023-11-14T18:18:54.190080",
        "MEAN_MOTION": 15.01260059,
        "ECCENTRICITY": 0.000208,
        "INCLINATION": 97.6543,
        "RA_OF_ASC_NODE": 137.6769,
        "ARG_OF_PERICENTER": 78.7164,
        "MEAN_ANOMALY": 281.4294,
        "EPHEMERIS_TYPE": 0,
        "CLASSIFICATION_TYPE": "U",
        "NORAD_CAT_ID": 53087,
        "ELEMENT_SET_NO": 999,
        "REV_AT_EPOCH": 7400,
        "BSTAR": 8.1253e-6,
        "MEAN_MOTION_DOT": 4.5e-7,
        "MEAN_MOTION_DDOT": 0
    },
    {
        "OBJECT_NAME": "STARLINK-4333",
        "OBJECT_ID": "2022-077AX",
        "EPOCH": "2023-11-15T02:16:07.863744",
        "MEAN_MOTION": 15.0125878,
        "ECCENTRICITY": 0.0001632,
        "INCLINATION": 97.6547,
        "RA_OF_ASC_NODE": 138.0109,
        "ARG_OF_PERICENTER": 88.509,
        "MEAN_ANOMALY": 271.6321,
        "EPHEMERIS_TYPE": 0,
        "CLASSIFICATION_TYPE": "U",
        "NORAD_CAT_ID": 53088,
        "ELEMENT_SET_NO": 999,
        "REV_AT_EPOCH": 7463,
        "BSTAR": -1.3715e-5,
        "MEAN_MOTION_DOT": -2.35e-6,
        "MEAN_MOTION_DDOT": 0
    },
    {
        "OBJECT_NAME": "STARLINK-4063",
        "OBJECT_ID": "2022-083A",
        "EPOCH": "2023-11-14T20:20:52.539648",
        "MEAN_MOTION": 15.0883925,
        "ECCENTRICITY": 0.000141,
        "INCLINATION": 53.2177,
        "RA_OF_ASC_NODE": 11.2516,
        "ARG_OF_PERICENTER": 91.9264,
        "MEAN_ANOMALY": 268.1889,
        "EPHEMERIS_TYPE": 0,
        "CLASSIFICATION_TYPE": "U",
        "NORAD_CAT_ID": 53132,
        "ELEMENT_SET_NO": 999,
        "REV_AT_EPOCH": 7352,
        "BSTAR": 1.0619e-5,
        "MEAN_MOTION_DOT": -1.19e-6,
        "MEAN_MOTION_DDOT": 0
    },
    {
        "OBJECT_NAME": "STARLINK-4154",
        "OBJECT_ID": "2022-083B",
        "EPOCH": "2023-11-14T20:57:59.372640",
        "MEAN_MOTION": 15.08832719,
        "ECCENTRICITY": 0.0001737,
        "INCLINATION": 53.218,
        "RA_OF_ASC_NODE": 11.2154,
        "ARG_OF_PERICENTER": 86.3344,
        "MEAN_ANOMALY": 273.7847,
        "EPHEMERIS_TYPE": 0,
        "CLASSIFICATION_TYPE": "U",
        "NORAD_CAT_ID": 53133,
        "ELEMENT_SET_NO": 999,
        "REV_AT_EPOCH": 7351,
        "BSTAR": -0.00010414,
        "MEAN_MOTION_DOT": -1.945e-5,
        "MEAN_MOTION_DDOT": 0
    },
    {
        "OBJECT_NAME": "STARLINK-4150",
        "OBJECT_ID": "2022-083C",
        "EPOCH": "2023-11-14T20:31:28.232832",
        "MEAN_MOTION": 15.08842191,
        "ECCENTRICITY": 0.000151,
        "INCLINATION": 53.2165,
        "RA_OF_ASC_NODE": 11.2229,
        "ARG_OF_PERICENTER": 93.8384,
        "MEAN_ANOMALY": 266.2781,
        "EPHEMERIS_TYPE": 0,
        "CLASSIFICATION_TYPE": "U",
        "NORAD_CAT_ID": 53134,
        "ELEMENT_SET_NO": 999,
        "REV_AT_EPOCH": 7352,
        "BSTAR": 7.2587e-5,
        "MEAN_MOTION_DOT": 8.67e-6,
        "MEAN_MOTION_DDOT": 0
    },
    {
        "OBJECT_NAME": "STARLINK-4023",
        "OBJECT_ID": "2022-083D",
        "EPOCH": "2023-11-14T20:42:04.881600",
        "MEAN_MOTION": 15.08838718,
        "ECCENTRICITY": 0.0001338,
        "INCLINATION": 53.2188,
        "RA_OF_ASC_NODE": 11.1868,
        "ARG_OF_PERICENTER": 84.8535,
        "MEAN_ANOMALY": 275.2609,
        "EPHEMERIS_TYPE": 0,
        "CLASSIFICATION_TYPE": "U",
        "NORAD_CAT_ID": 53135,
        "ELEMENT_SET_NO": 999,
        "REV_AT_EPOCH": 7451,
        "BSTAR": -2.638e-5,
        "MEAN_MOTION_DOT": -7.08e-6,
        "MEAN_MOTION_DDOT": 0
    },
    {
        "OBJECT_NAME": "STARLINK-4152",
        "OBJECT_ID": "2022-083E",
        "EPOCH": "2023-11-14T20:36:46.339488",
        "MEAN_MOTION": 15.08842123,
        "ECCENTRICITY": 0.0001494,
        "INCLINATION": 53.218,
        "RA_OF_ASC_NODE": 11.2057,
        "ARG_OF_PERICENTER": 94.2633,
        "MEAN_ANOMALY": 265.8529,
        "EPHEMERIS_TYPE": 0,
        "CLASSIFICATION_TYPE": "U",
        "NORAD_CAT_ID": 53136,
        "ELEMENT_SET_NO": 999,
        "REV_AT_EPOCH": 7451,
        "BSTAR": 6.4577e-5,
        "MEAN_MOTION_DOT": 7.4e-6,
        "MEAN_MOTION_DDOT": 0
    },
    {
        "OBJECT_NAME": "STARLINK-4145",
        "OBJECT_ID": "2022-083F",
        "EPOCH": "2023-11-14T20:26:10.724064",
        "MEAN_MOTION": 15.08836891,
        "ECCENTRICITY": 0.0001524,
        "INCLINATION": 53.2186,
        "RA_OF_ASC_NODE": 11.2382,
        "ARG_OF_PERICENTER": 99.717,
        "MEAN_ANOMALY": 260.3994,
        "EPHEMERIS_TYPE": 0,
        "CLASSIFICATION_TYPE": "U",
        "NORAD_CAT_ID": 53137,
        "ELEMENT_SET_NO": 999,
        "REV_AT_EPOCH": 7352,
        "BSTAR": 1.7377e-5,
        "MEAN_MOTION_DOT": -1.1e-7,
        "MEAN_MOTION_DDOT": 0
    },
    {
        "OBJECT_NAME": "STARLINK-4141",
        "OBJECT_ID": "2022-083G",
        "EPOCH": "2023-11-14T20:24:13.281408",
        "MEAN_MOTION": 15.08841651,
        "ECCENTRICITY": 0.0001701,
        "INCLINATION": 53.2171,
        "RA_OF_ASC_NODE": 6.426,
        "ARG_OF_PERICENTER": 84.3896,
        "MEAN_ANOMALY": 275.729,
        "EPHEMERIS_TYPE": 0,
        "CLASSIFICATION_TYPE": "U",
        "NORAD_CAT_ID": 53138,
        "ELEMENT_SET_NO": 999,
        "REV_AT_EPOCH": 7421,
        "BSTAR": 0.00020619,
        "MEAN_MOTION_DOT": 2.995e-5,
        "MEAN_MOTION_DDOT": 0
    },
    {
        "OBJECT_NAME": "STARLINK-4185",
        "OBJECT_ID": "2022-083H",
        "EPOCH": "2023-11-14T10:37:58.101312",
        "MEAN_MOTION": 15.08835361,
        "ECCENTRICITY": 0.0001407,
        "INCLINATION": 53.2182,
        "RA_OF_ASC_NODE": 13.071,
        "ARG_OF_PERICENTER": 88.7219,
        "MEAN_ANOMALY": 271.3934,
        "EPHEMERIS_TYPE": 0,
        "CLASSIFICATION_TYPE": "U",
        "NORAD_CAT_ID": 53139,
        "ELEMENT_SET_NO": 999,
        "REV_AT_EPOCH": 7346,
        "BSTAR": -4.032e-5,
        "MEAN_MOTION_DOT": -9.29e-6,
        "MEAN_MOTION_DDOT": 0
    },
    {
        "OBJECT_NAME": "STARLINK-4170",
        "OBJECT_ID": "2022-083J",
        "EPOCH": "2023-11-14T20:15:34.911648",
        "MEAN_MOTION": 15.08837481,
        "ECCENTRICITY": 0.0001432,
        "INCLINATION": 53.2174,
        "RA_OF_ASC_NODE": 11.2703,
        "ARG_OF_PERICENTER": 97.8494,
        "MEAN_ANOMALY": 262.266,
        "EPHEMERIS_TYPE": 0,
        "CLASSIFICATION_TYPE": "U",
        "NORAD_CAT_ID": 53140,
        "ELEMENT_SET_NO": 999,
        "REV_AT_EPOCH": 7352,
        "BSTAR": 5.4627e-5,
        "MEAN_MOTION_DOT": 5.81e-6,
        "MEAN_MOTION_DDOT": 0
    },
    {
        "OBJECT_NAME": "STARLINK-4103",
        "OBJECT_ID": "2022-083K",
        "EPOCH": "2023-11-15T03:46:00.778944",
        "MEAN_MOTION": 15.0883663,
        "ECCENTRICITY": 0.0001491,
        "INCLINATION": 53.2165,
        "RA_OF_ASC_NODE": 9.8628,
        "ARG_OF_PERICENTER": 97.6488,
        "MEAN_ANOMALY": 262.4674,
        "EPHEMERIS_TYPE": 0,
        "CLASSIFICATION_TYPE": "U",
        "NORAD_CAT_ID": 53141,
        "ELEMENT_SET_NO": 999,
        "REV_AT_EPOCH": 7420,
        "BSTAR": 1.3016e-5,
        "MEAN_MOTION_DOT": -8.1e-7,
        "MEAN_MOTION_DDOT": 0
    },
    {
        "OBJECT_NAME": "STARLINK-4101",
        "OBJECT_ID": "2022-083L",
        "EPOCH": "2023-11-14T08:57:15.979104",
        "MEAN_MOTION": 15.08829036,
        "ECCENTRICITY": 0.0001447,
        "INCLINATION": 53.2173,
        "RA_OF_ASC_NODE": 13.3837,
        "ARG_OF_PERICENTER": 83.2407,
        "MEAN_ANOMALY": 276.875,
        "EPHEMERIS_TYPE": 0,
        "CLASSIFICATION_TYPE": "U",
        "NORAD_CAT_ID": 53142,
        "ELEMENT_SET_NO": 999,
        "REV_AT_EPOCH": 7346,
        "BSTAR": -0.00026644,
        "MEAN_MOTION_DOT": -4.525e-5,
        "MEAN_MOTION_DDOT": 0
    }
]
